{
  "type": "FeatureCollection",
  "features": [
    {
      "type": "Feature",
      "properties": {
        "norad_id": 39227,
        "name": "ARIRANG-5 (KOMPSAT-5)",
        "group": "resource",
        "lat": 27.143404721082774,
        "lon": 4.579279188765183,
        "alt_km": 553.0569498183904,
        "timestamp": "2025-12-22T11:33:20.086401+00:00",
        "meta_object_name": "ARIRANG-5 (KOMPSAT-5)",
        "meta_object_id": "2013-042A",
        "meta_epoch": "2025-12-22T04:29:44.109312",
        "meta_mean_motion": 15.04543808,
        "meta_eccentricity": 0.0003437,
        "meta_inclination": 97.6157,
        "meta_ra_of_asc_node": 180.356,
        "meta_arg_of_pericenter": 34.2511,
        "meta_mean_anomaly": 325.8936,
        "meta_ephemeris_type": 0,
        "meta_classification_type": "U",
        "meta_norad_cat_id": 39227,
        "meta_element_set_no": 999,
        "meta_rev_at_epoch": 67724,
        "meta_bstar": 0.0001128,
        "meta_mean_motion_dot": 1.52e-05,
        "meta_mean_motion_ddot": 0,
        "tle_line1": "1 39227U 13042A   25356.18731608  .00001520  00000+0  11280-3 0  9990",
        "tle_line2": "2 39227  97.6157 180.3560 0003437  34.2511 325.8936 15.04543808677246"
      },
      "geometry": {
        "type": "Point",
        "coordinates": [
          4.579279188765183,
          27.143404721082774
        ]
      }
    },
    {
      "type": "Feature",
      "properties": {
        "norad_id": 39418,
        "name": "SKYSAT-A",
        "group": "resource",
        "lat": 53.548841558058626,
        "lon": 36.24703100652579,
        "alt_km": 538.504934638253,
        "timestamp": "2025-12-22T11:33:20.086412+00:00",
        "meta_object_name": "SKYSAT-A",
        "meta_object_id": "2013-066C",
        "meta_epoch": "2025-12-22T01:47:01.235040",
        "meta_mean_motion": 15.11668448,
        "meta_eccentricity": 0.0021384,
        "meta_inclination": 97.4091,
        "meta_ra_of_asc_node": 45.9992,
        "meta_arg_of_pericenter": 202.7866,
        "meta_mean_anomaly": 157.2418,
        "meta_ephemeris_type": 0,
        "meta_classification_type": "U",
        "meta_norad_cat_id": 39418,
        "meta_element_set_no": 999,
        "meta_rev_at_epoch": 66171,
        "meta_bstar": 0.00020685,
        "meta_mean_motion_dot": 3.473e-05,
        "meta_mean_motion_ddot": 0,
        "tle_line1": "1 39418U 13066C   25356.07431985  .00003473  00000+0  20685-3 0  9999",
        "tle_line2": "2 39418  97.4091  45.9992 0021384 202.7866 157.2418 15.11668448661717"
      },
      "geometry": {
        "type": "Point",
        "coordinates": [
          36.24703100652579,
          53.548841558058626
        ]
      }
    },
    {
      "type": "Feature",
      "properties": {
        "norad_id": 39419,
        "name": "DUBAISAT-2",
        "group": "resource",
        "lat": 79.95202415180347,
        "lon": -60.96603947827876,
        "alt_km": 540.1205547745949,
        "timestamp": "2025-12-22T11:33:20.086422+00:00",
        "meta_object_name": "DUBAISAT-2",
        "meta_object_id": "2013-066D",
        "meta_epoch": "2025-12-22T04:49:09.900192",
        "meta_mean_motion": 15.08436735,
        "meta_eccentricity": 0.0010052,
        "meta_inclination": 97.4442,
        "meta_ra_of_asc_node": 346.3163,
        "meta_arg_of_pericenter": 284.4658,
        "meta_mean_anomaly": 75.5455,
        "meta_ephemeris_type": 0,
        "meta_classification_type": "U",
        "meta_norad_cat_id": 39419,
        "meta_element_set_no": 999,
        "meta_rev_at_epoch": 65969,
        "meta_bstar": 0.00027083,
        "meta_mean_motion_dot": 4.159e-05,
        "meta_mean_motion_ddot": 0,
        "tle_line1": "1 39419U 13066D   25356.20080903  .00004159  00000+0  27083-3 0  9996",
        "tle_line2": "2 39419  97.4442 346.3163 0010052 284.4658  75.5455 15.08436735659697"
      },
      "geometry": {
        "type": "Point",
        "coordinates": [
          -60.96603947827876,
          79.95202415180347
        ]
      }
    },
    {
      "type": "Feature",
      "properties": {
        "norad_id": 39574,
        "name": "GPM-CORE",
        "group": "resource",
        "lat": 61.29694286512088,
        "lon": -121.3664468464745,
        "alt_km": 431.8333633547718,
        "timestamp": "2025-12-22T11:33:20.086432+00:00",
        "meta_object_name": "GPM-CORE",
        "meta_object_id": "2014-009C",
        "meta_epoch": "2025-12-22T01:54:21.964032",
        "meta_mean_motion": 15.44599645,
        "meta_eccentricity": 0.000927,
        "meta_inclination": 64.9719,
        "meta_ra_of_asc_node": 181.405,
        "meta_arg_of_pericenter": 248.9287,
        "meta_mean_anomaly": 111.0863,
        "meta_ephemeris_type": 0,
        "meta_classification_type": "U",
        "meta_norad_cat_id": 39574,
        "meta_element_set_no": 999,
        "meta_rev_at_epoch": 67045,
        "meta_bstar": 0.00017264,
        "meta_mean_motion_dot": 7.838e-05,
        "meta_mean_motion_ddot": 0,
        "tle_line1": "1 39574U 14009C   25356.07942088  .00007838  00000+0  17264-3 0  9999",
        "tle_line2": "2 39574  64.9719 181.4050 0009270 248.9287 111.0863 15.44599645670457"
      },
      "geometry": {
        "type": "Point",
        "coordinates": [
          -121.3664468464745,
          61.29694286512088
        ]
      }
    },
    {
      "type": "Feature",
      "properties": {
        "norad_id": 39634,
        "name": "SENTINEL-1A",
        "group": "resource",
        "lat": 31.350232683275983,
        "lon": -173.39417963357278,
        "alt_km": 693.6123046567736,
        "timestamp": "2025-12-22T11:33:20.086443+00:00",
        "meta_object_name": "SENTINEL-1A",
        "meta_object_id": "2014-016A",
        "meta_epoch": "2025-12-22T04:17:45.422880",
        "meta_mean_motion": 14.5920081,
        "meta_eccentricity": 0.0001267,
        "meta_inclination": 98.1795,
        "meta_ra_of_asc_node": 1.2809,
        "meta_arg_of_pericenter": 85.25,
        "meta_mean_anomaly": 274.8844,
        "meta_ephemeris_type": 0,
        "meta_classification_type": "U",
        "meta_norad_cat_id": 39634,
        "meta_element_set_no": 999,
        "meta_rev_at_epoch": 62420,
        "meta_bstar": 4.9193e-06,
        "meta_mean_motion_dot": -2.3e-07,
        "meta_mean_motion_ddot": 0,
        "tle_line1": "1 39634U 14016A   25356.17899795 -.00000023  00000+0  49193-5 0  9999",
        "tle_line2": "2 39634  98.1795   1.2809 0001267  85.2500 274.8844 14.59200810624203"
      },
      "geometry": {
        "type": "Point",
        "coordinates": [
          -173.39417963357278,
          31.350232683275983
        ]
      }
    },
    {
      "type": "Feature",
      "properties": {
        "norad_id": 39731,
        "name": "KAZEOSAT 1",
        "group": "resource",
        "lat": -61.621492689969045,
        "lon": -127.59170444935543,
        "alt_km": 759.5372282121225,
        "timestamp": "2025-12-22T11:33:20.086453+00:00",
        "meta_object_name": "KAZEOSAT 1",
        "meta_object_id": "2014-024A",
        "meta_epoch": "2025-12-22T03:46:21.006912",
        "meta_mean_motion": 14.42066901,
        "meta_eccentricity": 0.0001202,
        "meta_inclination": 98.3429,
        "meta_ra_of_asc_node": 67.8533,
        "meta_arg_of_pericenter": 98.3033,
        "meta_mean_anomaly": 261.8293,
        "meta_ephemeris_type": 0,
        "meta_classification_type": "U",
        "meta_norad_cat_id": 39731,
        "meta_element_set_no": 999,
        "meta_rev_at_epoch": 61304,
        "meta_bstar": 1.9896e-05,
        "meta_mean_motion_dot": 2.2e-07,
        "meta_mean_motion_ddot": 0,
        "tle_line1": "1 39731U 14024A   25356.15718758  .00000022  00000+0  19896-4 0  9997",
        "tle_line2": "2 39731  98.3429  67.8533 0001202  98.3033 261.8293 14.42066901613041"
      },
      "geometry": {
        "type": "Point",
        "coordinates": [
          -127.59170444935543,
          -61.621492689969045
        ]
      }
    },
    {
      "type": "Feature",
      "properties": {
        "norad_id": 39766,
        "name": "ALOS-2",
        "group": "resource",
        "lat": -3.6794163820709795,
        "lon": 91.70237177906492,
        "alt_km": 634.7119071378693,
        "timestamp": "2025-12-22T11:33:20.086463+00:00",
        "meta_object_name": "ALOS-2",
        "meta_object_id": "2014-029A",
        "meta_epoch": "2025-12-22T05:04:46.553952",
        "meta_mean_motion": 14.79476112,
        "meta_eccentricity": 0.0001372,
        "meta_inclination": 97.9229,
        "meta_ra_of_asc_node": 90.9233,
        "meta_arg_of_pericenter": 102.4141,
        "meta_mean_anomaly": 257.7224,
        "meta_ephemeris_type": 0,
        "meta_classification_type": "U",
        "meta_norad_cat_id": 39766,
        "meta_element_set_no": 999,
        "meta_rev_at_epoch": 62541,
        "meta_bstar": 0.00037245,
        "meta_mean_motion_dot": 2.731e-05,
        "meta_mean_motion_ddot": 0,
        "tle_line1": "1 39766U 14029A   25356.21164993  .00002731  00000+0  37245-3 0  9999",
        "tle_line2": "2 39766  97.9229  90.9233 0001372 102.4141 257.7224 14.79476112625412"
      },
      "geometry": {
        "type": "Point",
        "coordinates": [
          91.70237177906492,
          -3.6794163820709795
        ]
      }
    }
  ]
}